[{"OBJECT_NAME":"KUIPER-00151","OBJECT_ID":"2025-217K","EPOCH":"2026-03-09T07:29:03.997248","MEAN_MOTION":14.79857221,"ECCENTRICITY":9.771e-5,"INCLINATION":51.9032,"RA_OF_ASC_NODE":44.7716,"ARG_OF_PERICENTER":55.0617,"MEAN_ANOMALY":305.0437,"EPHEMERIS_TYPE":0,"CLASSIFICATION_TYPE":"U","NORAD_CAT_ID":65771,"ELEMENT_SET_NO":999,"REV_AT_EPOCH":2482,"BSTAR":-0.0010970142,"MEAN_MOTION_DOT":-8.558e-5,"MEAN_MOTION_DDOT":0},{"OBJECT_NAME":"FENGYUN 1C DEB","OBJECT_ID":"1999-025GJ","EPOCH":"2026-03-09T11:57:19.105056","MEAN_MOTION":14.20212821,"ECCENTRICITY":0.02740646,"INCLINATION":99.1923,"RA_OF_ASC_NODE":269.6906,"ARG_OF_PERICENTER":138.4279,"MEAN_ANOMALY":223.8094,"EPHEMERIS_TYPE":0,"CLASSIFICATION_TYPE":"U","NORAD_CAT_ID":29888,"ELEMENT_SET_NO":999,"REV_AT_EPOCH":98735,"BSTAR":0.00061902764,"MEAN_MOTION_DOT":1.877e-5,"MEAN_MOTION_DDOT":0}]
